0 IRIDIUM 38
1 25043U 97069E   13281.44673375  .00000310  00000-0  10129-3 0  4905
2 25043 086.3993 223.7949 0002533 071.6484 067.0932 14.35285856833359
0 IRIDIUM 38
1 25043U 97069E   13282.42291122  .00000326  00000-0  10702-3 0  4915
2 25043 086.3994 223.3865 0002469 070.6853 068.8007 14.35287945833498
0 IRIDIUM 38
1 25043U 97069E   13283.46815799  .00000295  00000-0  96100-4 0  4925
2 25043 086.3995 222.9491 0002394 069.8750 067.0190 14.35288463833649
0 IRIDIUM 38
1 25043U 97069E   13284.44444914  .00000297  00000-0  96888-4 0  4937
2 25043 086.3998 222.5406 0002325 069.0478 069.1860 14.35288855833784
0 IRIDIUM 38
1 25043U 97069E   13285.42064788  .00000260  00000-0  83816-4 0  4941
2 25043 086.4000 222.1321 0002253 068.5461 070.5534 14.35289315833929
0 IRIDIUM 38
1 25043U 97069E   13286.46584366  .00000280  00000-0  90950-4 0  4955
2 25043 086.4001 221.6947 0002180 067.8439 068.4088 14.35289735834077
0 IRIDIUM 38
1 25043U 97069E   13287.44064296  .00000324  00000-0  10634-3 0  4969
2 25043 086.4003 221.2869 0002101 067.3971 062.4989 14.35290338834218
0 IRIDIUM 38
1 25043U 97069E   13288.48541539  .00000450  00000-0  15023-3 0  4972
2 25043 086.4005 220.8499 0002031 066.5045 058.3635 14.35291515834365
0 IRIDIUM 38
1 25043U 97069E   13289.39453751  .00000350  00000-0  11546-3 0  4987
2 25043 086.4005 220.4696 0001955 066.4628 072.9112 14.35292465834491
0 IRIDIUM 38
1 25043U 97069E   13290.43947598  .00000396  00000-0  13137-3 0  4990
2 25043 086.4005 220.0326 0001876 066.0576 069.1523 14.35293085834647
0 IRIDIUM 38
1 25043U 97069E   13291.41610606  .00000383  00000-0  12706-3 0  5006
2 25043 086.4005 219.6242 0001795 065.9419 072.3758 14.35293646834786
0 IRIDIUM 38
1 25043U 97069E   13292.39229773  .00000378  00000-0  12512-3 0  5015
2 25043 086.4005 219.2160 0001738 065.5864 073.5773 14.35294110834921
0 IRIDIUM 38
1 25043U 97069E   13293.43748552  .00000381  00000-0  12639-3 0  5027
2 25043 086.4005 218.7789 0001669 065.6952 070.5981 14.35294917835074
0 IRIDIUM 38
1 25043U 97069E   13294.41379083  .00000353  00000-0  11652-3 0  5039
2 25043 086.4005 218.3707 0001600 065.7855 071.9447 14.35295794835210
0 IRIDIUM 38
1 25043U 97069E   13295.39002553  .00000364  00000-0  12028-3 0  5043
2 25043 086.4005 217.9624 0001532 066.1153 072.6902 14.35296532835353
